DELTA 2 R/B(1)          
1 20453U 90008B   26157.11184448  .00100860  00000+0  79153-3 0  9995
2 20453  35.5996 309.6616 0068397   9.6562 350.5477 15.67094261939963
COSMOS 2058             
1 20465U 90010A   26157.54661974  .00003825  00000+0  22126-3 0  9993
2 20465  82.4665 319.8499 0010456  36.0110 324.1822 15.11943112955661
SL-14 R/B               
1 20466U 90010B   26158.32117030  .00000398  00000+0  45240-4 0  9995
2 20466  82.5018 183.2105 0019987   9.1267 351.0307 14.83640227941777
SL-14 R/B               
1 20511U 90018B   26158.22267397  .00000452  00000+0  53660-4 0  9991
2 20511  82.5202 139.4212 0016841 152.4367 207.7744 14.82209894935847
HST                     
1 20580U 90037B   26158.29828938  .00006010  00000+0  18954-3 0  9991
2 20580  28.4712 148.1547 0001937  44.7656 315.3096 15.30642118787058
SL-16 R/B               
1 20625U 90046B   26157.62723566  .00000257  00000+0  15697-3 0  9996
2 20625  70.9979 111.1256 0014140 177.7915 182.3272 14.15020420860976
COSMOS 2084             
1 20663U 90055A   26157.37190060  .00002460  00000+0  18125-3 0  9994
2 20663  62.7909  33.0039 0005571 259.1304 100.9169 15.06072304949671
SL-6 R/B(2)             
1 20666U 90055D   26158.14261570  .00001961  00000+0  15380-3 0  9993
2 20666  62.7841 309.5560 0039044   3.7613 356.3772 15.03969781951645
SL-8 R/B                
1 20775U 90078B   26157.53258888  .00019142  00000+0  53935-3 0  9997
2 20775  82.9017 171.2678 0352993  74.3044 289.6817 14.91925991822536
SL-8 R/B                
1 21088U 91006B   26158.10203869  .00000050  00000+0  34393-4 0  9996
2 21088  82.9418 103.5359 0023225 141.5288 229.3870 13.77505131776387
OKEAN-3                 
1 21397U 91039A   26157.63579232  .00002409  00000+0  16621-3 0  9995
2 21397  82.5166 250.6130 0014692  34.1296 326.0872 15.05281228878416
COSMOS 2151             
1 21422U 91042A   26158.25635209  .00001583  00000+0  12358-3 0  9999
2 21422  82.4962 357.2657 0013697 113.7686 246.4976 15.00411063876625
SL-14 R/B               
1 21423U 91042B   26158.22712034  .00000455  00000+0  54487-4 0  9996
2 21423  82.4921 136.2360 0015768 310.6410  49.3432 14.81896277866337
ERS-1                   
1 21574U 91050A   26158.29473187  .00000285  00000+0  10569-3 0  9995
2 21574  98.7800 178.7509 0030813 297.4986  62.3070 14.39510978828621
ARIANE 40 R/B           
1 21610U 91050F   26157.64760312  .00000305  00000+0  10350-3 0  9994
2 21610  98.1879 206.4744 0003771 144.6128 215.5314 14.42950877831825
INTERCOSMOS 25          
1 21819U 91086A   26157.54743627  .00000773  00000+0  15383-3 0  9993
2 21819  82.6057 256.2481 1484428 285.3665  58.8577 12.12183565507450
SL-8 R/B                
1 21876U 92008B   26157.66618826  .00000054  00000+0  39875-4 0  9991
2 21876  82.9269 201.6098 0033314 245.0382 233.2779 13.75974083721657
SL-8 R/B                
1 21938U 92020B   26158.07861426  .00000066  00000+0  52543-4 0  9996
2 21938  82.9304  87.3653 0030275  49.9613 320.8465 13.75547903713421
USA 81                  
1 21949U 92023A   26158.07582816  .00000186  00000+0  61316-4 0  9995
2 21949  85.0077  79.8428 0002735  93.8531 266.2974 14.32395441107581
COSMOS 2219             
1 22219U 92076A   26157.79217611 -.00000080  00000+0 -17357-4 0  9991
2 22219  71.0578 191.8031 0016120  61.1295 299.1443 14.14095586730974
SL-16 R/B               
1 22220U 92076B   26158.30913459 -.00000195  00000+0 -73458-4 0  9995
2 22220  71.0008 359.5909 0014425 311.5990 221.2919 14.16872334734526
COSMOS 2221             
1 22236U 92080A   26157.84203780  .00001478  00000+0  12771-3 0  9997
2 22236  82.5036 193.6760 0012640 250.4312 109.5545 14.96507463794120
SL-16 R/B               
1 22285U 92093B   26157.78337103 -.00000066  00000+0 -94343-5 0  9996
2 22285  71.0202 177.2320 0004525 202.6785 157.4139 14.15464998725769
COSMOS 2228             
1 22286U 92094A   26158.26565864  .00002722  00000+0  23039-3 0  9990
2 22286  82.5170 151.5463 0017881   6.3935 353.7512 14.97551784789462
SL-16 R/B               
1 22566U 93016B   26157.62097889  .00000008  00000+0  28809-4 0  9998
2 22566  71.0080  28.4009 0010901 198.9571 161.1148 14.15308578714751
COSMOS 2242             
1 22626U 93024A   26158.02005220  .00001710  00000+0  14651-3 0  9997
2 22626  82.5180 181.2700 0016362  11.0731 349.0848 14.96873384793754
SL-16 R/B               
1 22803U 93059B   26158.32633768  .00000154  00000+0  99830-4 0  9993
2 22803  70.9883 182.0988 0014972  71.2369 289.0378 14.17243986692233
ARIANE 40 R/B           
1 22830U 93061H   26157.94064304  .00000211  00000+0  93062-4 0  9992
2 22830  98.4821 225.0103 0011109  26.4411 333.7338 14.32903576706881
COSMOS 2278             
1 23087U 94023A   26158.27500107  .00000394  00000+0  23061-3 0  9992
2 23087  71.0541 347.6650 0010613 254.4139 105.5813 14.14392155657477
SL-16 R/B               
1 23088U 94023B   26157.64494799  .00000121  00000+0  87264-4 0  9996
2 23088  70.9996 244.0707 0003434 198.1009 161.9992 14.15018806658672
SL-16 R/B               
1 23343U 94074B   26158.33127785  .00000482  00000+0  71071-4 0  9990
2 23343  97.6995 185.4625 0005206 295.1415  75.8545 14.79494222700503
SL-16 R/B               
1 23405U 94077B   26158.29845554 -.00000294  00000+0 -12595-3 0  9996
2 23405  70.9806 163.9669 0002616 333.4307  26.6681 14.15573834628910
ARIANE 40+ R/B          
1 23561U 95021B   26157.64240740  .00000275  00000+0  10138-3 0  9991
2 23561  98.4412 227.8693 0005806 227.9484 255.2585 14.39827571632043
SL-16 R/B               
1 23705U 95058B   26157.81510434 -.00000153  00000+0 -54011-4 0  9996
2 23705  71.0216 353.1362 0013343 334.4552  25.5910 14.15505363580467
SL-16 R/B               
1 24298U 96051B   26157.76250312  .00000132  00000+0  97896-4 0  9991
2 24298  70.7634 346.7124 0014570 352.8339   7.2570 14.12442526534229
ORBVIEW 2 (SEASTAR)     
1 24883U 97037A   26158.19236785  .00000298  00000+0  11983-3 0  9997
2 24883  98.8681 324.9351 0002878 137.3069 222.8340 14.35548493521317
SL-16 R/B               
1 25400U 98043G   26158.11920047  .00000055  00000+0  42047-4 0  9991
2 25400  98.8359 112.1921 0010834 112.6352 247.5974 14.26066906451736
SL-16 R/B               
1 25407U 98045B   26158.27673602  .00000087  00000+0  67900-4 0  9999
2 25407  71.0120 353.1723 0009532 253.4534 106.5543 14.16204543439785
ISS (ZARYA)             
1 25544U 98067A   26157.86947977  .00009276  00000+0  17237-3 0  9994
2 25544  51.6338 351.1688 0006977 142.0049 218.1433 15.49642340570157
CZ-4B R/B               
1 25732U 99025C   26157.86008348  .00000041  00000+0  40214-4 0  9991
2 25732  98.6488 199.9581 0038257  88.5039  84.6770 14.18281720400802
OKEAN-O                 
1 25860U 99039A   26157.66869947  .00000678  00000+0  95548-4 0  9992
2 25860  97.9319 216.5869 0001858  79.3700 280.7721 14.80454739447553
SL-16 R/B               
1 25861U 99039B   26157.63275003  .00000515  00000+0  71888-4 0  9995
2 25861  97.9842 216.5254 0014087 333.8280  26.2219 14.81834725450032
DELTA 2 R/B             
1 25876U 99041E   26158.12466285  .00000758  00000+0  15964-3 0  9994
2 25876  51.7662 303.9918 0500964 252.2696 102.2970 14.11997656375663
HELIOS 1B               
1 25977U 99064A   26157.68832614  .00001622  00000+0  18318-3 0  9991
2 25977  98.1623  62.5242 0002301 106.4885 253.6584 14.87978797698496
TERRA                   
1 25994U 99068A   26158.01926653  .00000404  00000+0  91295-4 0  9992
2 25994  97.9460 207.9683 0000883 241.3027 180.8680 14.61095053408129
SL-16 R/B               
1 26070U 00006B   26158.03278694 -.00000173  00000+0 -63810-4 0  9996
2 26070  71.0034 269.9758 0015027  39.0990 321.1216 14.15836990361207
TITAN 4B R/B            
1 26474U 00047B   26158.25801676  .00003530  00000+0  21906-3 0  9992
2 26474  67.9877 148.5205 0045537 297.1014  62.5494 15.10139591406434
ENVISAT                 
1 27386U 02009A   26158.15766565  .00000098  00000+0  45572-4 0  9993
2 27386  98.3830 109.7001 0001339  91.0025 280.1375 14.39062435272048
IDEFIX & ARIANE 42P R/B 
1 27422U 02021B   26158.06148695  .00000229  00000+0  10370-3 0  9999
2 27422  98.5942  95.6544 0010645 287.0528  72.9488 14.31077356256803
AQUA                    
1 27424U 02022A   26158.19023471  .00000855  00000+0  17988-3 0  9997
2 27424  98.4272 127.2738 0001499  54.9130 315.7137 14.62142940281818
CZ-4B R/B               
1 27432U 02024C   26157.64092704  .00000050  00000+0  48237-4 0  9991
2 27432  98.8703 210.5289 0051007 129.5946 344.9197 14.14562687241818
MIDORI II (ADEOS-II)    
1 27597U 02056A   26158.12782018  .00000282  00000+0  12835-3 0  9997
2 27597  98.7874 117.3024 0002210  90.7184 269.4250 14.29344099223074
H-2A R/B                
1 27601U 02056E   26158.16231472  .00000209  00000+0  88217-4 0  9997
2 27601  98.3308 115.2024 0068866 254.8968 114.8527 14.33817754226933
CZ-4B R/B               
1 28059U 03049C   26158.26048746  .00000375  00000+0  97493-4 0  9999
2 28059  98.6896 156.7119 0047325 319.5348  40.2331 14.55093659199623
CZ-2C R/B               
1 28222U 04012C   26157.37962722  .00122901  00000+0  75160-3 0  9998
2 28222  97.7089 231.8036 0008825 332.1519  27.9272 15.76941093218193
SL-16 R/B               
1 28353U 04021B   26157.41307141 -.00000166  00000+0 -61348-4 0  9990
2 28353  71.0024  46.3008 0007476 267.0875  92.9392 14.14612822135382
CZ-4B R/B               
1 28415U 04035C   26157.67214399  .00009079  00000+0  30615-3 0  9996
2 28415  97.3371 190.8652 0031236  15.7592 344.4614 15.30469234193519
CZ-2C R/B               
1 28480U 04046B   26158.02456888  .00000087  00000+0  47945-4 0  9996
2 28480  98.1951  67.4398 0138112 250.5396 108.0820 14.27024353121240
ARIANE 5 R/B            
1 28499U 04049H   26158.22827399  .00000900  00000+0  10491-3 0  9999
2 28499  98.2717 330.0973 0085046  61.3723 299.6012 14.85435502159087
